KUIPER-00016            
1 63732U 25088J   25282.10550349  .00002662  00000+0  37794-3 0  9998
2 63732  51.8994  61.8962 0010596 286.0838  73.8957 14.79945560 24888
KUIPER-00018            
1 63733U 25088K   25282.07232271  .00005150  00000+0  75423-3 0  9992
2 63733  51.9019  50.5187 0011977 312.6512  47.3439 14.76949108 25040
KUIPER-00019            
1 63734U 25088L   25282.52274003  .00004943  00000+0  68831-3 0  9996
2 63734  51.9001  47.5412 0008850 326.9816  33.0592 14.79206639 25129
KUIPER-00020            
1 63735U 25088M   25282.52033436  .00001525  00000+0  22912-3 0  9993
2 63735  51.9013  51.5374 0007211 303.5997  56.4277 14.79946600 25270
KUIPER-00021            
1 63736U 25088N   25282.51886899  .00003055  00000+0  42954-3 0  9990
2 63736  51.9010  52.5488 0005485 303.7620  56.2819 14.79940691 25095
KUIPER-00023            
1 63737U 25088P   25282.51776821 -.00003391  00000+0 -41552-3 0  9992
2 63737  51.9019  54.0202 0011049 320.4541  39.5615 14.79906587 25372
KUIPER-00024            
1 63738U 25088Q   25282.30520042  .00003662  00000+0  51733-3 0  9993
2 63738  51.9027  42.2495 0003774 322.6887  37.3812 14.79245180 25648
KUIPER-00025            
1 63739U 25088R   25282.52147702 -.00008771  00000+0 -11192-2 0  9998
2 63739  51.9016  50.0647 0008360 304.9192  55.0985 14.80038003 25410
